start=new Date('2022-10-30T00:00:00.000Z').valueOf();
sats=[{"REV_AT_EPOCH":"2594","NORAD_CAT_ID":"52677","MEAN_ELEMENT_THEORY":"SGP4","ARG_OF_PERICENTER":"40.5310","CENTER_NAME":"EARTH","PERIOD":"95.437","OBJECT_TYPE":"PAYLOAD","FILE":"3637863","LAUNCH_DATE":"2022-05-18","MEAN_MOTION":"15.08852507","REF_FRAME":"TEME","SEMIMAJOR_AXIS":"6917.842","RA_OF_ASC_NODE":"251.5706","ELEMENT_SET_NO":"999","SITE":"AFETR","EPHEMERIS_TYPE":"0","APOAPSIS":"541.327","TLE_LINE2":"2 52677  53.2168 251.5706 0002342  40.5310 319.5856 15.08852507 25942","EPOCH":"2022-10-29T20:38:02.926176","MEAN_ANOMALY":"319.5856","GP_ID":"216479576","MEAN_MOTION_DOT":"0.00001118","OBJECT_NAME":"STARLINK-4028","MEAN_MOTION_DDOT":"0.0000000000000","ECCENTRICITY":"0.00023420","TLE_LINE1":"1 52677U 22053X   22302.85975609  .00001118  00000-0  88322-4 0  9995","COUNTRY_CODE":"US","DECAY_DATE":null,"RCS_SIZE":"MEDIUM","INCLINATION":"53.2168","OBJECT_ID":"2022-053X","BSTAR":"0.00008832200000","PERIAPSIS":"538.087","TIME_SYSTEM":"UTC","CLASSIFICATION_TYPE":"U"},{"MEAN_ELEMENT_THEORY":"SGP4","REV_AT_EPOCH":"2592","NORAD_CAT_ID":"52678","PERIOD":"95.437","ARG_OF_PERICENTER":"40.0185","CENTER_NAME":"EARTH","OBJECT_TYPE":"PAYLOAD","FILE":"3637863","REF_FRAME":"TEME","LAUNCH_DATE":"2022-05-18","MEAN_MOTION":"15.08855523","SITE":"AFETR","EPHEMERIS_TYPE":"0","SEMIMAJOR_AXIS":"6917.833","RA_OF_ASC_NODE":"252.7227","ELEMENT_SET_NO":"999","GP_ID":"216480323","APOAPSIS":"541.535","TLE_LINE2":"2 52678  53.2183 252.7227 0002656  40.0185 320.1003 15.08855523 25925","MEAN_ANOMALY":"320.1003","EPOCH":"2022-10-29T14:28:28.430976","ECCENTRICITY":"0.00026560","TLE_LINE1":"1 52678U 22053Y   22302.60310684  .00000759  00000-0  65777-4 0  9994","DECAY_DATE":null,"COUNTRY_CODE":"US","MEAN_MOTION_DOT":"0.00000759","OBJECT_NAME":"STARLINK-4074","MEAN_MOTION_DDOT":"0.0000000000000","TIME_SYSTEM":"UTC","CLASSIFICATION_TYPE":"U","RCS_SIZE":"LARGE","INCLINATION":"53.2183","BSTAR":"0.00006577700000","OBJECT_ID":"2022-053Y","PERIAPSIS":"537.861"},{"OBJECT_NAME":"STARLINK-4031","MEAN_MOTION_DOT":"0.00001937","MEAN_MOTION_DDOT":"0.0000000000000","TLE_LINE1":"1 52679U 22053Z   22302.58375645  .00001937  00000-0  13972-3 0  9998","ECCENTRICITY":"0.00018740","COUNTRY_CODE":"US","DECAY_DATE":null,"INCLINATION":"53.2168","RCS_SIZE":"LARGE","PERIAPSIS":"538.416","OBJECT_ID":"2022-053Z","BSTAR":"0.00013972000000","TIME_SYSTEM":"UTC","CLASSIFICATION_TYPE":"U","SEMIMAJOR_AXIS":"6917.847","RA_OF_ASC_NODE":"252.8109","ELEMENT_SET_NO":"999","SITE":"AFETR","EPHEMERIS_TYPE":"0","APOAPSIS":"541.009","EPOCH":"2022-10-29T14:00:36.557280","MEAN_ANOMALY":"314.0427","TLE_LINE2":"2 52679  53.2168 252.8109 0001874  46.0720 314.0427 15.08850826 25889","GP_ID":"216479746","OBJECT_TYPE":"PAYLOAD","FILE":"3637863","MEAN_MOTION":"15.08850826","LAUNCH_DATE":"2022-05-18","REF_FRAME":"TEME","REV_AT_EPOCH":"2588","NORAD_CAT_ID":"52679","MEAN_ELEMENT_THEORY":"SGP4","ARG_OF_PERICENTER":"46.0720","CENTER_NAME":"EARTH","PERIOD":"95.437"},{"MEAN_MOTION_DDOT":"0.0000000000000","MEAN_MOTION_DOT":"-0.00000546","OBJECT_NAME":"STARLINK-3774","DECAY_DATE":null,"COUNTRY_CODE":"US","ECCENTRICITY":"0.00020520","TLE_LINE1":"1 52680U 22053AA  22302.86344348 -.00000546  00000-0 -16174-4 0  9992","BSTAR":"-0.00001617400000","OBJECT_ID":"2022-053AA","PERIAPSIS":"538.326","RCS_SIZE":"LARGE","INCLINATION":"53.2153","CLASSIFICATION_TYPE":"U","TIME_SYSTEM":"UTC","ELEMENT_SET_NO":"999","SEMIMAJOR_AXIS":"6917.881","RA_OF_ASC_NODE":"251.5506","EPHEMERIS_TYPE":"0","SITE":"AFETR","TLE_LINE2":"2 52680  53.2153 251.5506 0002052  37.7689 322.3447 15.08839939 25945","MEAN_ANOMALY":"322.3447","EPOCH":"2022-10-29T20:43:21.516672","APOAPSIS":"541.165","GP_ID":"216479555","FILE":"3637863","OBJECT_TYPE":"PAYLOAD","LAUNCH_DATE":"2022-05-18","MEAN_MOTION":"15.08839939","REF_FRAME":"TEME","NORAD_CAT_ID":"52680","REV_AT_EPOCH":"2594","MEAN_ELEMENT_THEORY":"SGP4","CENTER_NAME":"EARTH","ARG_OF_PERICENTER":"37.7689","PERIOD":"95.438"},{"FILE":"3637863","OBJECT_TYPE":"PAYLOAD","MEAN_MOTION":"15.08852429","LAUNCH_DATE":"2022-05-18","REF_FRAME":"TEME","NORAD_CAT_ID":"52681","REV_AT_EPOCH":"2588","MEAN_ELEMENT_THEORY":"SGP4","CENTER_NAME":"EARTH","ARG_OF_PERICENTER":"33.6223","PERIOD":"95.437","MEAN_MOTION_DDOT":"0.0000000000000","OBJECT_NAME":"STARLINK-4068","MEAN_MOTION_DOT":"0.00000936","COUNTRY_CODE":"US","DECAY_DATE":null,"TLE_LINE1":"1 52681U 22053AB  22302.58007770  .00000936  00000-0  76870-4 0  9997","ECCENTRICITY":"0.00025880","PERIAPSIS":"537.917","OBJECT_ID":"2022-053AB","BSTAR":"0.00007687000000","INCLINATION":"53.2167","RCS_SIZE":"LARGE","CLASSIFICATION_TYPE":"U","TIME_SYSTEM":"UTC","ELEMENT_SET_NO":"999","SEMIMAJOR_AXIS":"6917.842","RA_OF_ASC_NODE":"252.8181","EPHEMERIS_TYPE":"0","SITE":"AFETR","EPOCH":"2022-10-29T13:55:18.713280","MEAN_ANOMALY":"326.4933","TLE_LINE2":"2 52681  53.2167 252.8181 0002588  33.6223 326.4933 15.08852429 25884","APOAPSIS":"541.498","GP_ID":"216479158"},{"FILE":"3637863","OBJECT_TYPE":"PAYLOAD","REF_FRAME":"TEME","MEAN_MOTION":"15.08858253","LAUNCH_DATE":"2022-05-18","MEAN_ELEMENT_THEORY":"SGP4","NORAD_CAT_ID":"52682","REV_AT_EPOCH":"2594","PERIOD":"95.436","CENTER_NAME":"EARTH","ARG_OF_PERICENTER":"32.5140","COUNTRY_CODE":"US","DECAY_DATE":null,"TLE_LINE1":"1 52682U 22053AC  22302.85607238  .00000599  00000-0  55708-4 0  9995","ECCENTRICITY":"0.00025120","MEAN_MOTION_DDOT":"0.0000000000000","OBJECT_NAME":"STARLINK-4017","MEAN_MOTION_DOT":"0.00000599","CLASSIFICATION_TYPE":"U","TIME_SYSTEM":"UTC","PERIAPSIS":"537.952","BSTAR":"0.00005570800000","OBJECT_ID":"2022-053AC","INCLINATION":"53.2161","RCS_SIZE":"LARGE","EPHEMERIS_TYPE":"0","SITE":"AFETR","ELEMENT_SET_NO":"999","SEMIMAJOR_AXIS":"6917.825","RA_OF_ASC_NODE":"251.5797","GP_ID":"216480065","MEAN_ANOMALY":"327.6007","EPOCH":"2022-10-29T20:32:44.653632","TLE_LINE2":"2 52682  53.2161 251.5797 0002512  32.5140 327.6007 15.08858253 25944","APOAPSIS":"541.427"},{"MEAN_ELEMENT_THEORY":"SGP4","NORAD_CAT_ID":"52683","REV_AT_EPOCH":"2588","PERIOD":"95.437","CENTER_NAME":"EARTH","ARG_OF_PERICENTER":"48.4475","FILE":"3637863","OBJECT_TYPE":"PAYLOAD","REF_FRAME":"TEME","MEAN_MOTION":"15.08841619","LAUNCH_DATE":"2022-05-18","EPHEMERIS_TYPE":"0","SITE":"AFETR","ELEMENT_SET_NO":"999","SEMIMAJOR_AXIS":"6917.875","RA_OF_ASC_NODE":"252.8539","GP_ID":"216479328","MEAN_ANOMALY":"311.6688","EPOCH":"2022-10-29T13:44:43.718208","TLE_LINE2":"2 52683  53.2167 252.8539 0001999  48.4475 311.6688 15.08841619 25883","APOAPSIS":"541.123","COUNTRY_CODE":"US","DECAY_DATE":null,"TLE_LINE1":"1 52683U 22053AD  22302.57272822 -.00002076  00000-0 -11235-3 0  9992","ECCENTRICITY":"0.00019990","MEAN_MOTION_DDOT":"0.0000000000000","OBJECT_NAME":"STARLINK-4039","MEAN_MOTION_DOT":"-0.00002076","CLASSIFICATION_TYPE":"U","TIME_SYSTEM":"UTC","PERIAPSIS":"538.358","BSTAR":"-0.00011235000000","OBJECT_ID":"2022-053AD","INCLINATION":"53.2167","RCS_SIZE":"LARGE"},{"APOAPSIS":"541.267","TLE_LINE2":"2 52684  53.2166 251.6009 0002236  35.3778 324.7363 15.08848148 25922","EPOCH":"2022-10-29T20:27:26.673120","MEAN_ANOMALY":"324.7363","GP_ID":"216479137","SEMIMAJOR_AXIS":"6917.855","RA_OF_ASC_NODE":"251.6009","ELEMENT_SET_NO":"999","SITE":"AFETR","EPHEMERIS_TYPE":"0","RCS_SIZE":"LARGE","INCLINATION":"53.2166","BSTAR":"0.00012084000000","OBJECT_ID":"2022-053AE","PERIAPSIS":"538.174","TIME_SYSTEM":"UTC","CLASSIFICATION_TYPE":"U","MEAN_MOTION_DOT":"0.00001636","OBJECT_NAME":"STARLINK-4014","MEAN_MOTION_DDOT":"0.0000000000000","ECCENTRICITY":"0.00022360","TLE_LINE1":"1 52684U 22053AE  22302.85239205  .00001636  00000-0  12084-3 0  9994","DECAY_DATE":null,"COUNTRY_CODE":"US","ARG_OF_PERICENTER":"35.3778","CENTER_NAME":"EARTH","PERIOD":"95.437","REV_AT_EPOCH":"2592","NORAD_CAT_ID":"52684","MEAN_ELEMENT_THEORY":"SGP4","LAUNCH_DATE":"2022-05-18","MEAN_MOTION":"15.08848148","REF_FRAME":"TEME","OBJECT_TYPE":"PAYLOAD","FILE":"3637863"},{"MEAN_MOTION":"15.08845996","LAUNCH_DATE":"2022-05-18","REF_FRAME":"TEME","FILE":"3637863","OBJECT_TYPE":"PAYLOAD","CENTER_NAME":"EARTH","ARG_OF_PERICENTER":"41.5417","PERIOD":"95.437","NORAD_CAT_ID":"52685","REV_AT_EPOCH":"2586","MEAN_ELEMENT_THEORY":"SGP4","PERIAPSIS":"538.001","BSTAR":"0.00003550300000","OBJECT_ID":"2022-053AF","INCLINATION":"53.2185","RCS_SIZE":"LARGE","CLASSIFICATION_TYPE":"U","TIME_SYSTEM":"UTC","MEAN_MOTION_DDOT":"0.0000000000000","OBJECT_NAME":"STARLINK-4029","MEAN_MOTION_DOT":"0.00000277","COUNTRY_CODE":"US","DECAY_DATE":null,"TLE_LINE1":"1 52685U 22053AF  22302.56536048  .00000277  00000-0  35503-4 0  9990","ECCENTRICITY":"0.00024950","MEAN_ANOMALY":"318.5764","EPOCH":"2022-10-29T13:34:07.145472","TLE_LINE2":"2 52685  53.2185 252.8861 0002495  41.5417 318.5764 15.08845996 25866","APOAPSIS":"541.453","GP_ID":"216479577","ELEMENT_SET_NO":"999","SEMIMAJOR_AXIS":"6917.862","RA_OF_ASC_NODE":"252.8861","EPHEMERIS_TYPE":"0","SITE":"AFETR"},{"CLASSIFICATION_TYPE":"U","TIME_SYSTEM":"UTC","PERIAPSIS":"537.897","BSTAR":"0.00007729000000","OBJECT_ID":"2022-053AG","INCLINATION":"53.2166","RCS_SIZE":"LARGE","DECAY_DATE":null,"COUNTRY_CODE":"US","TLE_LINE1":"1 52686U 22053AG  22302.84136161  .00000942  00000-0  77290-4 0  9992","ECCENTRICITY":"0.00026270","MEAN_MOTION_DDOT":"0.0000000000000","OBJECT_NAME":"STARLINK-4005","MEAN_MOTION_DOT":"0.00000942","GP_ID":"216480324","MEAN_ANOMALY":"310.2675","EPOCH":"2022-10-29T20:11:33.643104","TLE_LINE2":"2 52686  53.2166 251.6536 0002627  49.8547 310.2675 15.08850177 25917","APOAPSIS":"541.532","EPHEMERIS_TYPE":"0","SITE":"AFETR","ELEMENT_SET_NO":"999","SEMIMAJOR_AXIS":"6917.849","RA_OF_ASC_NODE":"251.6536","REF_FRAME":"TEME","MEAN_MOTION":"15.08850177","LAUNCH_DATE":"2022-05-18","FILE":"3637863","OBJECT_TYPE":"PAYLOAD","PERIOD":"95.437","CENTER_NAME":"EARTH","ARG_OF_PERICENTER":"49.8547","MEAN_ELEMENT_THEORY":"SGP4","NORAD_CAT_ID":"52686","REV_AT_EPOCH":"2591"}];
